algorithm,apogee,argOfPerigee,bStar,classificationMarking,elset_created_at,elset_created_by,dataMode,eccentricity,idElset,idOnOrbit,inclination,line1,line2,meanAnomaly,meanMotion,meanMotionDDot,meanMotionDot,origNetwork,perigee,period,raan,revNo,satNo,semiMajorAxis,source,__START_AT,__END_AT,COUNTRY,LAUNCH,LAUNCH_NUM,LAUNCH_PIECE,NORAD_CAT_ID,OBJECT_ID,OBJECT_NAME,OBJECT_NUMBER,OBJECT_TYPE,RCS_SIZE,SATNAME,SITE,satcat_current_fetch_date
SGP4,6926.304,113.6146,-4.4832E-5,U,2024-02-01T05:05:14.268Z,system.ob-ingest,REAL,1.422E-4,053b8bcf-1bab-49c6-b6ad-dfbde47a083a,45383,53.0567,1 45383U 20019Z   24031.91642509 -.00000949 +00000+0 -44832-4 0 99998,2 45383  53.0567 353.2781 0001422 113.6146 246.4992 15.06409610214286,246.4992,15.0640961,0.0,-9.49E-6,OPS1,6924.334,95.592,353.2781,21428,45383,6925.319,18th SPCS,2024-01-31T21:59:39.127776Z,2024-02-01T02:46:15.715488Z,US,2020-03-18,19,Z,45383,2020-019Z,STARLINK-1266,45383,PAYLOAD,LARGE,STARLINK-1266,AFETR,2024-08-21
SGP4,6926.245,91.489,1.2744E-4,U,2024-01-31T05:05:14.093Z,system.ob-ingest,REAL,1.292E-4,84510501-60a0-4fb4-93c1-872e1ae11ec1,45683,53.0529,1 45683U 20035AC  24030.94058687 +.00001617 +00000+0 +12744-3 0 99996,2 45683  53.0529 267.6685 0001292  91.4890 268.6247 15.06399546203005,268.6247,15.06399546,0.0,1.617E-5,OPS1,6924.455,95.592,267.6685,20300,45683,6925.35,18th SPCS,2024-01-30T22:34:26.705568Z,2024-02-01T00:03:04.271328Z,US,2020-06-04,35,AC,45683,2020-035AC,STARLINK-1399,45683,PAYLOAD,LARGE,STARLINK-1399,AFETR,2024-08-21
SGP4,6926.348,92.9646,1.3857E-4,U,2024-02-01T18:05:15.411Z,system.ob-ingest,REAL,1.473E-4,e50ff262-698a-49f5-843f-9a2c451489e5,45706,53.054,1 45706U 20035BB  24031.99659810 +.00001783 +00000+0 +13857-3 0 99993,2 45706  53.0540 242.9230 0001473  92.9646 267.1512 15.06406735203437,267.1512,15.06406735,0.0,1.783E-5,OPS1,6924.308,95.592,242.923,20343,45706,6925.328,18th SPCS,2024-01-31T23:55:06.075840Z,2024-02-01T23:48:12.056544Z,US,2020-06-04,35,BB,45706,2020-035BB,STARLINK-1411,45706,PAYLOAD,LARGE,STARLINK-1411,AFETR,2024-08-21
SGP4,6926.044,96.0175,4.7115E-4,U,2024-02-01T05:05:13.786Z,system.ob-ingest,REAL,9.92E-5,77108262-f618-4bc1-9f57-8ec7a6c33330,46076,53.0538,1 46076U 20055BB  24031.74780521 +.00006743 +00000+0 +47115-3 0 99998,2 46076  53.0538 304.0432 0000992  96.0175 264.0927 15.06397182193547,264.0927,15.06397182,0.0,6.743E-5,OPS1,6924.67,95.592,304.0432,19354,46076,6925.357,18th SPCS,2024-01-31T17:56:50.370144Z,2024-02-01T00:18:59.804352Z,US,2020-08-07,55,BB,46076,2020-055BB,STARLINK-1552,46076,PAYLOAD,LARGE,STARLINK-1552,AFETR,2024-08-21
SGP4,6926.276,76.012,-9.8153E-5,U,2024-01-31T15:05:13.507Z,system.ob-ingest,REAL,1.323E-4,1e5d687b-a049-4e7a-9826-170ac7b5b020,46122,53.0557,1 46122U 20057F   24031.48055736 -.00001743 +00000+0 -98153-4 0 99992,2 46122  53.0557 125.2525 0001323  76.0120 284.1016 15.06396227191508,284.1016,15.06396227,0.0,-1.743E-5,OPS1,6924.444,95.592,125.2525,19150,46122,6925.36,18th SPCS,2024-01-31T11:32:00.155904Z,2024-02-01T11:25:05.270016Z,US,2020-08-18,57,F,46122,2020-057F,STARLINK-1604,46122,PAYLOAD,LARGE,STARLINK-1604,AFETR,2024-08-21
SGP4,6922.845,86.0974,7.1925E-4,U,2024-01-30T23:05:13.105Z,system.ob-ingest,REAL,1.504E-4,38ce8577-d689-49ee-8eb9-5a8e83fbbd94,46126,53.0533,1 46126U 20057K   24030.76701613 +.00010787 +00000+0 +71925-3 0 99991,2 46126  53.0533 167.7678 0001504  86.0974 274.0188 15.07557327190840,274.0188,15.07557327,0.0,1.0787E-4,OPS1,6920.763,95.519,167.7678,19084,46126,6921.804,18th SPCS,2024-01-30T18:24:30.193632Z,2024-02-01T16:32:58.226784Z,US,2020-08-18,57,K,46126,2020-057K,STARLINK-1619,46126,PAYLOAD,LARGE,STARLINK-1619,AFETR,2024-08-21
SGP4,6926.266,99.3802,1.3957E-4,U,2024-02-01T07:05:13.981Z,system.ob-ingest,REAL,1.318E-4,8fa50187-f688-4a79-bba6-b1bf83d24937,46327,53.0537,1 46327U 20062C   24031.97263229 +.00001798 +00000+0 +13957-3 0 99993,2 46327  53.0537 223.0352 0001318  99.3802 260.7336 15.06398458188775,260.7336,15.06398458,0.0,1.798E-5,OPS1,6924.441,95.592,223.0352,18877,46327,6925.353,18th SPCS,2024-01-31T23:20:35.429856Z,2024-02-01T18:27:04.626720Z,US,2020-09-03,62,C,46327,2020-062C,STARLINK-1673,46327,PAYLOAD,LARGE,STARLINK-1673,AFETR,2024-08-21
SGP4,6926.351,92.3723,2.2576E-4,U,2024-02-01T05:05:13.923Z,system.ob-ingest,REAL,1.464E-4,6575e858-3098-432b-9597-104d520eb01d,46372,53.0527,1 46372U 20062AZ  24031.93578043 +.00003083 +00000+0 +22576-3 0 99998,2 46372  53.0527 223.2004 0001464  92.3723 267.7434 15.06403657188591,267.7434,15.06403657,0.0,3.083E-5,OPS1,6924.323,95.592,223.2004,18859,46372,6925.337,18th SPCS,2024-01-31T22:27:31.429152Z,2024-02-01T12:47:22.985952Z,US,2020-09-03,62,AZ,46372,2020-062AZ,STARLINK-1689,46372,PAYLOAD,LARGE,STARLINK-1689,AFETR,2024-08-21
SGP4,6926.177,85.8901,-2.7653E-4,U,2024-02-01T05:05:13.641Z,system.ob-ingest,REAL,1.301E-4,10cccd66-2f93-4bec-8af1-135be565698e,46749,53.0537,1 46749U 20074L   24031.79156943 -.00004401 +00000+0 -27653-3 0 99992,2 46749  53.0537 168.8454 0001301  85.8901 274.2237 15.06423770180930,274.2237,15.0642377,0.0,-4.401E-5,OPS1,6924.375,95.591,168.8454,18093,46749,6925.276,18th SPCS,2024-01-31T18:59:51.598752Z,2024-02-01T09:19:41.890656Z,US,2020-10-24,74,L,46749,2020-074L,STARLINK-1911,46749,PAYLOAD,LARGE,STARLINK-1911,AFETR,2024-08-21
SGP4,6926.485,118.5526,2.286E-7,U,2024-01-31T15:05:13.555Z,system.ob-ingest,REAL,1.606E-4,6c321d97-6436-42c1-b465-84e18bf11500,47134,53.0564,1 47134U 20088N   24031.49484431 -.00000278 +00000+0 +22858-6 0 99991,2 47134  53.0564 150.1786 0001606 118.5526 241.5625 15.06392193176359,241.5625,15.06392193,0.0,-2.78E-6,OPS1,6924.26,95.593,150.1786,17635,47134,6925.372,18th SPCS,2024-01-31T11:52:34.548384Z,2024-02-01T11:45:39.792096Z,US,2020-11-25,88,N,47134,2020-088N,STARLINK-1844,47134,PAYLOAD,LARGE,STARLINK-1844,AFETR,2024-08-21
SGP4,6926.286,93.3316,6.3468E-5,U,2024-01-31T07:05:13.307Z,system.ob-ingest,REAL,1.337E-4,588303ad-a024-41f2-986c-e46658d6b064,47361,53.0528,1 47361U 21005N   24031.02581858 +.00000664 +00000+0 +63468-4 0 99991,2 47361  53.0528 242.2837 0001337  93.3316 266.7826 15.06396129168557,266.7826,15.06396129,0.0,6.64E-6,OPS1,6924.435,95.592,242.2837,16855,47361,6925.36,18th SPCS,2024-01-31T00:37:10.725312Z,2024-02-01T13:14:35.207232Z,US,2021-01-20,5,N,47361,2021-005N,STARLINK-2071,47361,PAYLOAD,LARGE,STARLINK-2071,AFETR,2024-08-21
SGP4,6926.174,88.7331,8.3899E-5,U,2024-02-01T05:05:14.185Z,system.ob-ingest,REAL,1.214E-4,64280927-f897-4e7b-bc32-9cec2f200a5a,47376,53.0537,1 47376U 21005AD  24031.69020607 +.00000969 +00000+0 +83899-4 0 99998,2 47376  53.0537 269.3017 0001214  88.7331 271.3797 15.06404839167288,271.3797,15.06404839,0.0,9.69E-6,OPS1,6924.493,95.592,269.3017,16728,47376,6925.334,18th SPCS,2024-01-31T16:33:53.804448Z,2024-02-01T00:31:35.316192Z,US,2021-01-20,5,AD,47376,2021-005AD,STARLINK-2096,47376,PAYLOAD,LARGE,STARLINK-2096,AFETR,2024-08-21
SGP4,6926.304,94.6921,1.4281E-4,U,2024-02-01T05:05:13.889Z,system.ob-ingest,REAL,1.358E-4,228dec2e-830c-47bf-9e93-aff69a6fb878,47548,53.0537,1 47548U 21009A   24031.91596593 +.00001846 +00000+0 +14281-3 0 99993,2 47548  53.0537 218.2880 0001358  94.6921 265.4223 15.06394963165215,265.4223,15.06394963,0.0,1.846E-5,OPS1,6924.424,95.592,218.288,16521,47548,6925.364,18th SPCS,2024-01-31T21:58:59.456352Z,2024-02-01T12:18:51.070176Z,US,2021-02-04,9,A,47548,2021-009A,STARLINK-1782,47548,PAYLOAD,LARGE,STARLINK-1782,AFETR,2024-08-21
SGP4,6926.296,93.2377,1.7584E-4,U,2024-01-31T05:05:13.804Z,system.ob-ingest,REAL,1.365E-4,e567539c-f5c6-474d-89ca-99a46294e81f,47557,53.0525,1 47557U 21009K   24030.90694392 +.00002339 +00000+0 +17584-3 0 99994,2 47557  53.0525 252.8215 0001365  93.2377 266.8768 15.06399229164641,266.8768,15.06399229,0.0,2.339E-5,OPS1,6924.406,95.592,252.8215,16464,47557,6925.351,18th SPCS,2024-01-30T21:45:59.954688Z,2024-02-01T23:07:43.377600Z,US,2021-02-04,9,K,47557,2021-009K,STARLINK-1956,47557,PAYLOAD,LARGE,STARLINK-1956,AFETR,2024-08-21
SGP4,6926.289,94.0345,2.3045E-4,U,2024-02-01T05:05:13.915Z,system.ob-ingest,REAL,1.382E-4,c1b66d8a-87e9-46ae-8c7d-b5fee51a2cdb,47565,53.053,1 47565U 21009T   24031.92702277 +.00003153 +00000+0 +23045-3 0 99992,2 47565  53.0530 218.2374 0001382  94.0345 266.0802 15.06405418165214,266.0802,15.06405418,0.0,3.153E-5,OPS1,6924.375,95.592,218.2374,16521,47565,6925.332,18th SPCS,2024-01-31T22:14:54.767328Z,2024-02-01T12:34:46.760448Z,US,2021-02-04,9,T,47565,2021-009T,STARLINK-1964,47565,PAYLOAD,LARGE,STARLINK-1964,AFETR,2024-08-21
SGP4,6926.31,97.6526,1.4855E-4,U,2024-01-31T23:05:15.482Z,system.ob-ingest,REAL,1.366E-4,c458d56b-4f3f-46b0-a552-990446c87943,47603,53.0527,1 47603U 21009BH  24031.56672965 +.00001932 +00000+0 +14855-3 0 99997,2 47603  53.0527 249.8509 0001366  97.6526 262.4618 15.06394879164734,262.4618,15.06394879,0.0,1.932E-5,OPS1,6924.418,95.592,249.8509,16473,47603,6925.364,18th SPCS,2024-01-31T13:36:05.441760Z,2024-02-01T00:44:51.949248Z,US,2021-02-04,9,BH,47603,2021-009BH,STARLINK-2008,47603,PAYLOAD,LARGE,STARLINK-2008,AFETR,2024-08-21
SGP4,6926.225,86.4308,9.6465E-5,U,2024-02-01T05:05:13.939Z,system.ob-ingest,REAL,1.264E-4,3bd2664b-cc30-44ac-8719-778e33ad775a,47604,53.0537,1 47604U 21009BJ  24031.89385354 +.00001156 +00000+0 +96465-4 0 99993,2 47604  53.0537 218.3875 0001264  86.4308 273.6825 15.06399617165217,273.6825,15.06399617,0.0,1.156E-5,OPS1,6924.474,95.592,218.3875,16521,47604,6925.35,18th SPCS,2024-01-31T21:27:08.945856Z,2024-02-01T11:47:00.409344Z,US,2021-02-04,9,BJ,47604,2021-009BJ,STARLINK-2021,47604,PAYLOAD,LARGE,STARLINK-2021,AFETR,2024-08-21
